#*******************************************************************************
#Ephemeris / MAIL_REQUEST Tue Oct 13 13:51:18 2015 Pasadena, USA  / Horizons   
#*******************************************************************************
#Target body name: Kepler (spacecraft) (-227)      {source: MONTE Difference Line Ta}
#Center body name: Earth (399)                     {source: DE-0431LE-0431}
#Center-site name: GEOCENTRIC
#*******************************************************************************
#Start time      : A.D. 2013-Jan-01 10:00:00.0000 UT     
#Stop  time      : A.D. 2016-Dec-31 00:00:00.0000 UT     
#Step-size       : 1440 minutes
#*******************************************************************************
#Target pole/equ : No model available
#Target radii    : (unavailable)                                               
#Center geodetic : 0.00000000,0.00000000,0.0000000 {E-lon(deg),Lat(deg),Alt(km)}
#Center cylindric: 0.00000000,0.00000000,0.0000000 {E-lon(deg),Dxy(km),Dz(km)}
#Center pole/equ : High-precision EOP model        {East-longitude +}
#Center radii    : 6378.1 x 6378.1 x 6356.8 km     {Equator, meridian, pole}   
#Target primary  : Earth
#Vis. interferer : MOON (R_eq= 1737.400) km        {source: DE-0431LE-0431}
#Rel. light bend : Sun, EARTH                      {source: DE-0431LE-0431}
#Rel. lght bnd GM: 1.3271E+11, 3.9860E+05 km^3/s^2                             
#Atmos refraction: NO (AIRLESS)
#RA format       : DEG
#Time format     : JD 
#EOP file        : eop.151012.p160103                                          
#EOP coverage    : DATA-BASED 1962-JAN-20 TO 2015-OCT-12. PREDICTS-> 2016-JAN-02
#Units conversion: 1 au= 149597870.700 km, c= 299792.458 km/s, 1 day= 86400.0 s
#Table cut-offs 1: Elevation (-90.0deg=NO ),Airmass (>38.000=NO), Daylight (NO )
#Table cut-offs 2: Solar Elongation (  0.0,180.0=NO ),Local Hour Angle( 0.0=NO )
#*****************************************************************************************************************************************************************************************************************************************************************************************
#Date_________JDUT     R.A._(J2000.0)_DEC. R.A._(a-appar)_DEC. dRA*cosD d(DEC)/dt a-mass mag_ex   Illu% hEcl-Lon hEcl-Lat               r        rdot            delta      deldot   1-way_LT   VmagSn   VmagOb    S-O-T /r    S-T-O  T-O-M/Illu% Cnst Tru_Anom      phi  PAB-LON  PAB-LAT
#*****************************************************************************************************************************************************************************************************************************************************************************************
#$$SOE
2456765.916666667     103.77089  23.13665  0.55804581628061 
2456766.916666667     104.86092  23.05029  0.55840846063137 
2456767.916666667     105.94860  22.95652  0.55878343079348 
2456768.916666667     107.03384  22.85542  0.55917080254436 
2456769.916666667     108.11657  22.74703  0.55957056676183 
2456770.916666667     109.19672  22.63142  0.55998262681228 
2456771.916666667     110.27422  22.50865  0.56040680011130 
2456772.916666667     111.34899  22.37880  0.56084284794881 
2456773.916666667     112.42097  22.24195  0.56129040461012 
2456774.916666667     113.49006  22.09817  0.56174912484630 
2456775.916666667     114.55619  21.94754  0.56221861930154 
2456776.916666667     115.61928  21.79015  0.56269850023619 
2456777.916666667     116.67923  21.62609  0.56318840219695 
2456778.916666667     117.73595  21.45546  0.56368799584863 
2456779.916666667     118.78938  21.27832  0.56419698965269 
2456780.916666667     119.83938  21.09483  0.56471515444187 
2456781.916666667     120.88588  20.90506  0.56524230302098 
2456782.916666667     121.92881  20.70911  0.56577829573973 
2456783.916666667     122.96809  20.50708  0.56632302516634 
2456784.916666667     124.00365  20.29908  0.56687641242262 
2456785.916666667     125.03544  20.08522  0.56743841617599 
2456786.916666667     126.06339  19.86562  0.56800904835822 
2456787.916666667     127.08743  19.64035  0.56858830205863 
2456788.916666667     128.10754  19.40953  0.56917626573642 
2456789.916666667     129.12366  19.17328  0.56977305243255 
2456790.916666667     130.13578  18.93172  0.57037881904084 
2456791.916666667     131.14386  18.68494  0.57099376193053 
2456792.916666667     132.14790  18.43305  0.57161810483560 
2456793.916666667     133.14791  18.17618  0.57225209251553 
2456794.916666667     134.14390  17.91439  0.57289591229116 
2456795.916666667     135.13589  17.64780  0.57354974718948 
2456796.916666667     136.12393  17.37652  0.57421369659094 
2456797.916666667     137.10807  17.10064  0.57488777489145 
2456798.916666667     138.08835  16.82026  0.57557190308933 
2456799.916666667     139.06482  16.53549  0.57626591191026 
2456800.916666667     140.03753  16.24639  0.57696953732145 
2456801.916666667     141.00657  15.95313  0.57768248763998 
2456802.916666667     141.97196  15.65579  0.57840437863011 
2456803.916666667     142.93376  15.35447  0.57913480390266 
2456804.916666667     143.89201  15.04929  0.57987334062959 
2456805.916666667     144.84674  14.74033  0.58061956363827 
2456806.916666667     145.79799  14.42773  0.58137306328204 
2456807.916666667     146.74582  14.11161  0.58213346811731 
2456808.916666667     147.69022  13.79204  0.58290039093249 
2456809.916666667     148.63125  13.46916  0.58367353142106 
2456810.916666667     149.56893  13.14308  0.58445260692973 
2456811.916666667     150.50331  12.81391  0.58523737184113 
2456812.916666667     151.43441  12.48176  0.58602761534370 
2456813.916666667     152.36228  12.14674  0.58682316146333 
2456814.916666667     153.28696  11.80894  0.58762387568452 
2456815.916666667     154.20848  11.46851  0.58842964279367 
2456816.916666667     155.12688  11.12553  0.58924041066731 
2456817.916666667     156.04221  10.78012  0.59005617106444 
2456818.916666667     156.95453  10.43238  0.59087697277000 
2456819.916666667     157.86387  10.08241  0.59170292457903 
2456820.916666667     158.77030   9.73032  0.59253419214997 
2456821.916666667     159.67389   9.37621  0.59337098568675 
2456822.916666667     160.57471   9.02015  0.59421352982811 
2456823.916666667     161.47286   8.66225  0.59506203926883 
2456824.916666667     162.36843   8.30258  0.59591667502407 
2456825.916666667     163.26152   7.94124  0.59677751875196 
2456826.916666667     164.15226   7.57830  0.59764455590048 
2456827.916666667     165.04075   7.21386  0.59851767330950 
2456828.916666667     165.92710   6.84799  0.59939670496026 
2456829.916666667     166.81143   6.48078  0.60028129695178 
2456830.916666667     167.69383   6.11231  0.60117114889331 
2456831.916666667     168.57441   5.74266  0.60206588057072 
2456832.916666667     169.45327   5.37192  0.60296508411693 
2456833.916666667     170.33049   5.00018  0.60386833718365 
2456834.916666667     171.20616   4.62753  0.60477521333558 
2456835.916666667     172.08035   4.25404  0.60568528697964 
2456836.916666667     172.95317   3.87982  0.60659816054504 
2456837.916666667     173.82468   3.50497  0.60751344887506 
2456838.916666667     174.69495   3.12956  0.60843079017366 
2456839.916666667     175.56405   2.75369  0.60934985181019 
2456840.916666667     176.43204   2.37746  0.61027033170669 
2456841.916666667     177.29900   2.00095  0.61119195932226 
2456842.916666667     178.16500   1.62424  0.61211450839907 
2456843.916666667     179.03008   1.24746  0.61303775684959 
2456844.916666667     179.89432   0.87066  0.61396155735791 
2456845.916666667     180.75778   0.49395  0.61488580164848 
2456846.916666667     181.62052   0.11742  0.61581044041459 
2456847.916666667     182.48260  -0.25886  0.61673549257842 
2456848.916666667     183.34408  -0.63479  0.61766105132508 
2456849.916666667     184.20504  -1.01032  0.61858730389162 
2456850.916666667     185.06555  -1.38531  0.61951442701901 
2456851.916666667     185.92570  -1.75970  0.62044268942242 
2456852.916666667     186.78558  -2.13344  0.62137232317517 
2456853.916666667     187.64529  -2.50645  0.62230350307288 
2456854.916666667     188.50496  -2.87865  0.62323631653318 
2456855.916666667     189.36469  -3.24998  0.62417074884344 
2456856.916666667     190.22459  -3.62039  0.62510669600500 
2456857.916666667     191.08479  -3.98977  0.62604393466573 
2456858.916666667     191.94539  -4.35807  0.62698220538439 
2456859.916666667     192.80649  -4.72523  0.62792118651137 
2456860.916666667     193.66819  -5.09116  0.62886051947947 
2456861.916666667     194.53058  -5.45579  0.62979982269224 
2456862.916666667     195.39375  -5.81904  0.63073869975583 
2456863.916666667     196.25778  -6.18084  0.63167676713032 
2456864.916666667     197.12276  -6.54110  0.63261358265800 
2456865.916666667     197.98875  -6.89976  0.63354876513664 
2456866.916666667     198.85584  -7.25672  0.63448192860139 
2456867.916666667     199.72408  -7.61191  0.63541270221235 
2456868.916666667     200.59353  -7.96525  0.63634073535265 
2456869.916666667     201.46427  -8.31665  0.63726570185387 
2456870.916666667     202.33634  -8.66603  0.63818732546541 
2456871.916666667     203.20978  -9.01330  0.63910529805333 
2456872.916666667     204.08465  -9.35839  0.64001941432744 
2456873.916666667     204.96100  -9.70121  0.64092949350495 
2456874.916666667     205.83887 -10.04167  0.64183541019453 
2456875.916666667     206.71830 -10.37968  0.64273710607011 
2456876.916666667     207.59933 -10.71517  0.64363460015418 
2456877.916666667     208.48200 -11.04806  0.64452799550865 
2456878.916666667     209.36635 -11.37825  0.64541747580825 
2456879.916666667     210.25244 -11.70567  0.64630328632417 
2456880.916666667     211.14033 -12.03024  0.64718570086452 
2456881.916666667     212.03009 -12.35189  0.64806497721588 
2456882.916666667     212.92179 -12.67055  0.64894131391789 
